{"type": "FeatureCollection", "features": [ {"type": "Feature", "properties": {"norad_id": 43622, "name": "BEIDOU-3 M13 (C32)", "group": "beidou", "lat": 56.19398168079807, "lon": 166.88873669092303, "alt_km": 21538.06508340999, "timestamp": "2025-12-25T16:53:14.928850+00:00", "meta": {"OBJECT_NAME": "BEIDOU-3 M13 (C32)", "OBJECT_ID": "2018-072A", "EPOCH": "2025-12-22T08:10:31.412640", "MEAN_MOTION": 1.86231166, "ECCENTRICITY": 0.00064111, "INCLINATION": 56.4667, "RA_OF_ASC_NODE": 68.5024, "ARG_OF_PERICENTER": 297.4685, "MEAN_ANOMALY": 62.5173, "EPHEMERIS_TYPE": 0, "CLASSIFICATION_TYPE": "U", "NORAD_CAT_ID": 43622, "ELEMENT_SET_NO": 999, "REV_AT_EPOCH": 4936, "BSTAR": 0, "MEAN_MOTION_DOT": -2.9e-07, "MEAN_MOTION_DDOT": 0}, "tle": {"line1": "1 43622U 18072A   25356.34064135 -.00000029  00000+0  00000+0 0  9992", "line2": "2 43622  56.4667  68.5024 0006411 297.4685  62.5173  1.86231166 49361"}}, "geometry": {"type": "Point", "coordinates": [166.88873669092303, 56.19398168079807]}}, {"type": "Feature", "properties": {"norad_id": 43623, "name": "BEIDOU-3 M14 (C33)", "group": "beidou", "lat": -4.097740790341014, "lon": -108.87862241958392, "alt_km": 21536.799051272417, "timestamp": "2025-12-25T16:53:14.928862+00:00", "meta": {"OBJECT_NAME": "BEIDOU-3 M14 (C33)", "OBJECT_ID": "2018-072B", "EPOCH": "2025-12-23T06:43:13.861056", "MEAN_MOTION": 1.86231163, "ECCENTRICITY": 0.00035931, "INCLINATION": 56.4696, "RA_OF_ASC_NODE": 68.4654, "ARG_OF_PERICENTER": 327.0772, "MEAN_ANOMALY": 32.9541, "EPHEMERIS_TYPE": 0, "CLASSIFICATION_TYPE": "U", "NORAD_CAT_ID": 43623, "ELEMENT_SET_NO": 999, "REV_AT_EPOCH": 4937, "BSTAR": 0, "MEAN_MOTION_DOT": -2.6e-07, "MEAN_MOTION_DDOT": 0}, "tle": {"line1": "1 43623U 18072B   25357.28002154 -.00000026  00000+0  00000+0 0  9997", "line2": "2 43623  56.4696  68.4654 0003593 327.0772  32.9541  1.86231163 49375"}}, "geometry": {"type": "Point", "coordinates": [-108.87862241958392, -4.097740790341014]}}, {"type": "Feature", "properties": {"norad_id": 43647, "name": "BEIDOU-3 M16 (C35)", "group": "beidou", "lat": 52.9087661526386, "lon": 18.18398777180623, "alt_km": 21510.92179480384, "timestamp": "2025-12-25T16:53:14.928873+00:00", "meta": {"OBJECT_NAME": "BEIDOU-3 M16 (C35)", "OBJECT_ID": "2018-078A", "EPOCH": "2025-12-25T01:09:54.550656", "MEAN_MOTION": 1.86232271, "ECCENTRICITY": 0.00074722, "INCLINATION": 54.2505, "RA_OF_ASC_NODE": 306.0911, "ARG_OF_PERICENTER": 20.5834, "MEAN_ANOMALY": 339.4558, "EPHEMERIS_TYPE": 0, "CLASSIFICATION_TYPE": "U", "NORAD_CAT_ID": 43647, "ELEMENT_SET_NO": 999, "REV_AT_EPOCH": 4891, "BSTAR": 0, "MEAN_MOTION_DOT": -5.3e-07, "MEAN_MOTION_DDOT": 0}, "tle": {"line1": "1 43647U 18078A   25359.04854804 -.00000053  00000+0  00000+0 0  9992", "line2": "2 43647  54.2505 306.0911 0007472  20.5834 339.4558  1.86232271 48910"}}, "geometry": {"type": "Point", "coordinates": [18.18398777180623, 52.9087661526386]}}, {"type": "Feature", "properties": {"norad_id": 43648, "name": "BEIDOU-3 M15 (C34)", "group": "beidou", "lat": -6.023584211536785, "lon": -58.30266914263851, "alt_km": 21518.899877179807, "timestamp": "2025-12-25T16:53:14.928884+00:00", "meta": {"OBJECT_NAME": "BEIDOU-3 M15 (C34)", "OBJECT_ID": "2018-078B", "EPOCH": "2025-12-24T02:29:34.317888", "MEAN_MOTION": 1.86232361, "ECCENTRICITY": 0.0004049, "INCLINATION": 54.2473, "RA_OF_ASC_NODE": 306.125, "ARG_OF_PERICENTER": 19.767, "MEAN_ANOMALY": 340.256, "EPHEMERIS_TYPE": 0, "CLASSIFICATION_TYPE": "U", "NORAD_CAT_ID": 43648, "ELEMENT_SET_NO": 999, "REV_AT_EPOCH": 4891, "BSTAR": 0, "MEAN_MOTION_DOT": -5.2e-07, "MEAN_MOTION_DDOT": 0}, "tle": {"line1": "1 43648U 18078B   25358.10386942 -.00000052  00000+0  00000+0 0  9991", "line2": "2 43648  54.2473 306.1250 0004049  19.7670 340.2560  1.86232361 48910"}}, "geometry": {"type": "Point", "coordinates": [-58.30266914263851, -6.023584211536785]}}, {"type": "Feature", "properties": {"norad_id": 43683, "name": "BEIDOU-3 G1 (C59)", "group": "beidou", "lat": 1.13859332632511, "lon": 127.67813812608323, "alt_km": 35781.73785765451, "timestamp": "2025-12-25T16:53:14.928896+00:00", "meta": {"OBJECT_NAME": "BEIDOU-3 G1 (C59)", "OBJECT_ID": "2018-085A", "EPOCH": "2025-12-25T04:34:38.772192", "MEAN_MOTION": 1.00266449, "ECCENTRICITY": 0.00014398, "INCLINATION": 2.637, "RA_OF_ASC_NODE": 102.5973, "ARG_OF_PERICENTER": 43.7748, "MEAN_ANOMALY": 156.1931, "EPHEMERIS_TYPE": 0, "CLASSIFICATION_TYPE": "U", "NORAD_CAT_ID": 43683, "ELEMENT_SET_NO": 999, "REV_AT_EPOCH": 2631, "BSTAR": 0, "MEAN_MOTION_DOT": -2.58e-06, "MEAN_MOTION_DDOT": 0}, "tle": {"line1": "1 43683U 18085A   25359.19072653 -.00000258  00000+0  00000+0 0  9997", "line2": "2 43683   2.6370 102.5973 0001439  43.7748 156.1931  1.00266449 26311"}}, "geometry": {"type": "Point", "coordinates": [127.67813812608323, 1.13859332632511]}}, {"type": "Feature", "properties": {"norad_id": 43706, "name": "BEIDOU-3 M17 (C36)", "group": "beidou", "lat": -47.821254987855035, "lon": 61.08677117684571, "alt_km": 21525.5596828775, "timestamp": "2025-12-25T16:53:14.928908+00:00", "meta": {"OBJECT_NAME": "BEIDOU-3 M17 (C36)", "OBJECT_ID": "2018-093A", "EPOCH": "2025-12-25T01:59:52.471680", "MEAN_MOTION": 1.86228331, "ECCENTRICITY": 0.00060142, "INCLINATION": 54.1734, "RA_OF_ASC_NODE": 188.2028, "ARG_OF_PERICENTER": 307.2012, "MEAN_ANOMALY": 243.0238, "EPHEMERIS_TYPE": 0, "CLASSIFICATION_TYPE": "U", "NORAD_CAT_ID": 43706, "ELEMENT_SET_NO": 999, "REV_AT_EPOCH": 4829, "BSTAR": 0, "MEAN_MOTION_DOT": 1.09e-06, "MEAN_MOTION_DDOT": 0}, "tle": {"line1": "1 43706U 18093A   25359.08324620  .00000109  00000+0  00000+0 0  9998", "line2": "2 43706  54.1734 188.2028 0006014 307.2012 243.0238  1.86228331 48290"}}, "geometry": {"type": "Point", "coordinates": [61.08677117684571, -47.821254987855035]}}, {"type": "Feature", "properties": {"norad_id": 43707, "name": "BEIDOU-3 M18 (C37)", "group": "beidou", "lat": -16.946129016422454, "lon": 175.45521344205187, "alt_km": 21514.3154113234, "timestamp": "2025-12-25T16:53:14.928919+00:00", "meta": {"OBJECT_NAME": "BEIDOU-3 M18 (C37)", "OBJECT_ID": "2018-093B", "EPOCH": "2025-12-23T01:12:21.238848", "MEAN_MOTION": 1.86226616, "ECCENTRICITY": 0.0006147, "INCLINATION": 54.1741, "RA_OF_ASC_NODE": 188.2636, "ARG_OF_PERICENTER": 354.1254, "MEAN_ANOMALY": 5.9078, "EPHEMERIS_TYPE": 0, "CLASSIFICATION_TYPE": "U", "NORAD_CAT_ID": 43707, "ELEMENT_SET_NO": 999, "REV_AT_EPOCH": 4825, "BSTAR": 0, "MEAN_MOTION_DOT": 9.6e-07, "MEAN_MOTION_DDOT": 0}, "tle": {"line1": "1 43707U 18093B   25357.05024582  .00000096  00000+0  00000+0 0  9993", "line2": "2 43707  54.1741 188.2636 0006147 354.1254   5.9078  1.86226616 48257"}}, "geometry": {"type": "Point", "coordinates": [175.45521344205187, -16.946129016422454]}}, {"type": "Feature", "properties": {"norad_id": 44231, "name": "BEIDOU-2 G8 (C01)", "group": "beidou", "lat": 1.446577019779857, "lon": 132.30656261221804, "alt_km": 35817.70683279404, "timestamp": "2025-12-25T16:53:14.928930+00:00", "meta": {"OBJECT_NAME": "BEIDOU-2 G8 (C01)", "OBJECT_ID": "2019-027A", "EPOCH": "2025-12-25T00:03:30.600000", "MEAN_MOTION": 1.00274531, "ECCENTRICITY": 0.00082946, "INCLINATION": 1.691, "RA_OF_ASC_NODE": 74.7363, "ARG_OF_PERICENTER": 259.0794, "MEAN_ANOMALY": 265.3408, "EPHEMERIS_TYPE": 0, "CLASSIFICATION_TYPE": "U", "NORAD_CAT_ID": 44231, "ELEMENT_SET_NO": 999, "REV_AT_EPOCH": 2433, "BSTAR": 0, "MEAN_MOTION_DOT": -2.26e-06, "MEAN_MOTION_DDOT": 0}, "tle": {"line1": "1 44231U 19027A   25359.00243750 -.00000226  00000+0  00000+0 0  9997", "line2": "2 44231   1.6910  74.7363 0008294 259.0794 265.3408  1.00274531 24335"}}, "geometry": {"type": "Point", "coordinates": [132.30656261221804, 1.446577019779857]}}, {"type": "Feature", "properties": {"norad_id": 44337, "name": "BEIDOU-3 IGSO-2 (C39)", "group": "beidou", "lat": -40.869871676485744, "lon": 123.39124394171773, "alt_km": 35832.55394840421, "timestamp": "2025-12-25T16:53:14.928942+00:00", "meta": {"OBJECT_NAME": "BEIDOU-3 IGSO-2 (C39)", "OBJECT_ID": "2019-035A", "EPOCH": "2025-12-24T20:30:50.966784", "MEAN_MOTION": 1.00267539, "ECCENTRICITY": 0.00378522, "INCLINATION": 55.2292, "RA_OF_ASC_NODE": 160.3949, "ARG_OF_PERICENTER": 202.5754, "MEAN_ANOMALY": 157.6854, "EPHEMERIS_TYPE": 0, "CLASSIFICATION_TYPE": "U", "NORAD_CAT_ID": 44337, "ELEMENT_SET_NO": 999, "REV_AT_EPOCH": 2392, "BSTAR": 0, "MEAN_MOTION_DOT": -7e-07, "MEAN_MOTION_DDOT": 0}, "tle": {"line1": "1 44337U 19035A   25358.85475656 -.00000070  00000+0  00000+0 0  9994", "line2": "2 44337  55.2292 160.3949 0037852 202.5754 157.6854  1.00267539 23925"}}, "geometry": {"type": "Point", "coordinates": [123.39124394171773, -40.869871676485744]}}, {"type": "Feature", "properties": {"norad_id": 44542, "name": "BEIDOU-3 M24 (C46)", "group": "beidou", "lat": -49.18842753324569, "lon": 132.4896999651399, "alt_km": 21535.935083964196, "timestamp": "2025-12-25T16:53:14.928954+00:00", "meta": {"OBJECT_NAME": "BEIDOU-3 M24 (C46)", "OBJECT_ID": "2019-061A", "EPOCH": "2025-12-24T17:34:06.027744", "MEAN_MOTION": 1.86229347, "ECCENTRICITY": 0.00095746, "INCLINATION": 54.4007, "RA_OF_ASC_NODE": 188.6113, "ARG_OF_PERICENTER": 26.2213, "MEAN_ANOMALY": 333.8628, "EPHEMERIS_TYPE": 0, "CLASSIFICATION_TYPE": "U", "NORAD_CAT_ID": 44542, "ELEMENT_SET_NO": 999, "REV_AT_EPOCH": 4254, "BSTAR": 0, "MEAN_MOTION_DOT": 1.06e-06, "MEAN_MOTION_DDOT": 0}, "tle": {"line1": "1 44542U 19061A   25358.73201421  .00000106  00000+0  00000+0 0  9994", "line2": "2 44542  54.4007 188.6113 0009574  26.2213 333.8628  1.86229347 42540"}}, "geometry": {"type": "Point", "coordinates": [132.4896999651399, -49.18842753324569]}}]}